{"type": "FeatureCollection", "features": [ {"type": "Feature", "properties": {"norad_id": 67020, "name": "STARLINK-36172", "group": "last-30-days", "lat": -68.20209636862127, "lon": -135.0162064050028, "alt_km": 331.1112811189296, "timestamp": "2025-12-24T03:53:28.364468+00:00", "meta": {"OBJECT_NAME": "STARLINK-36172", "OBJECT_ID": "2025-293T", "EPOCH": "2025-12-23T20:00:01.000224", "MEAN_MOTION": 15.82451732, "ECCENTRICITY": 0.0003738, "INCLINATION": 69.9923, "RA_OF_ASC_NODE": 291.5874, "ARG_OF_PERICENTER": 266.4155, "MEAN_ANOMALY": 300.6367, "EPHEMERIS_TYPE": 0, "CLASSIFICATION_TYPE": "U", "NORAD_CAT_ID": 67020, "ELEMENT_SET_NO": 999, "REV_AT_EPOCH": 200, "BSTAR": -0.0090484, "MEAN_MOTION_DOT": -0.0164577, "MEAN_MOTION_DDOT": 0}, "tle": {"line1": "1 67020U 25293T   25357.83334491 -.01645770  00000+0 -90484-2 0  9991", "line2": "2 67020  69.9923 291.5874 0003738 266.4155 300.6367 15.82451732  2006"}}, "geometry": {"type": "Point", "coordinates": [-135.0162064050028, -68.20209636862127]}}, {"type": "Feature", "properties": {"norad_id": 67021, "name": "STARLINK-36184", "group": "last-30-days", "lat": -67.09698981006535, "lon": -128.954462049574, "alt_km": 331.25527923933714, "timestamp": "2025-12-24T03:53:28.364478+00:00", "meta": {"OBJECT_NAME": "STARLINK-36184", "OBJECT_ID": "2025-293U", "EPOCH": "2025-12-23T20:00:01.000224", "MEAN_MOTION": 15.82428334, "ECCENTRICITY": 0.0003654, "INCLINATION": 69.9925, "RA_OF_ASC_NODE": 291.5842, "ARG_OF_PERICENTER": 265.845, "MEAN_ANOMALY": 303.7944, "EPHEMERIS_TYPE": 0, "CLASSIFICATION_TYPE": "U", "NORAD_CAT_ID": 67021, "ELEMENT_SET_NO": 999, "REV_AT_EPOCH": 200, "BSTAR": -0.0090541, "MEAN_MOTION_DOT": -0.01644998, "MEAN_MOTION_DDOT": 0}, "tle": {"line1": "1 67021U 25293U   25357.83334491 -.01644998  00000+0 -90541-2 0  9997", "line2": "2 67021  69.9925 291.5842 0003654 265.8450 303.7944 15.82428334  2009"}}, "geometry": {"type": "Point", "coordinates": [-128.954462049574, -67.09698981006535]}}, {"type": "Feature", "properties": {"norad_id": 67022, "name": "STARLINK-36209", "group": "last-30-days", "lat": -65.59335558011608, "lon": -122.78173574487636, "alt_km": 331.4687476804611, "timestamp": "2025-12-24T03:53:28.364488+00:00", "meta": {"OBJECT_NAME": "STARLINK-36209", "OBJECT_ID": "2025-293V", "EPOCH": "2025-12-23T20:00:01.000224", "MEAN_MOTION": 15.82390485, "ECCENTRICITY": 0.0003483, "INCLINATION": 69.9923, "RA_OF_ASC_NODE": 291.5808, "ARG_OF_PERICENTER": 266.7137, "MEAN_ANOMALY": 305.8699, "EPHEMERIS_TYPE": 0, "CLASSIFICATION_TYPE": "U", "NORAD_CAT_ID": 67022, "ELEMENT_SET_NO": 999, "REV_AT_EPOCH": 200, "BSTAR": -0.0090316, "MEAN_MOTION_DOT": -0.01638712, "MEAN_MOTION_DDOT": 0}, "tle": {"line1": "1 67022U 25293V   25357.83334491 -.01638712  00000+0 -90316-2 0  9995", "line2": "2 67022  69.9923 291.5808 0003483 266.7137 305.8699 15.82390485  2007"}}, "geometry": {"type": "Point", "coordinates": [-122.78173574487636, -65.59335558011608]}}, {"type": "Feature", "properties": {"norad_id": 67023, "name": "STARLINK-36191", "group": "last-30-days", "lat": -64.13392222678507, "lon": -118.08927483295436, "alt_km": 331.4663104727715, "timestamp": "2025-12-24T03:53:28.364500+00:00", "meta": {"OBJECT_NAME": "STARLINK-36191", "OBJECT_ID": "2025-293W", "EPOCH": "2025-12-23T20:00:01.000224", "MEAN_MOTION": 15.82373636, "ECCENTRICITY": 0.0003657, "INCLINATION": 69.9923, "RA_OF_ASC_NODE": 291.5773, "ARG_OF_PERICENTER": 264.5282, "MEAN_ANOMALY": 310.5498, "EPHEMERIS_TYPE": 0, "CLASSIFICATION_TYPE": "U", "NORAD_CAT_ID": 67023, "ELEMENT_SET_NO": 999, "REV_AT_EPOCH": 189, "BSTAR": -0.0090668, "MEAN_MOTION_DOT": -0.0164332, "MEAN_MOTION_DDOT": 0}, "tle": {"line1": "1 67023U 25293W   25357.83334491 -.01643320  00000+0 -90668-2 0  9997", "line2": "2 67023  69.9923 291.5773 0003657 264.5282 310.5498 15.82373636  1894"}}, "geometry": {"type": "Point", "coordinates": [-118.08927483295436, -64.13392222678507]}}, {"type": "Feature", "properties": {"norad_id": 67024, "name": "STARLINK-36192", "group": "last-30-days", "lat": -62.261334071382365, "lon": -113.22579531143096, "alt_km": 331.10534295315847, "timestamp": "2025-12-24T03:53:28.364511+00:00", "meta": {"OBJECT_NAME": "STARLINK-36192", "OBJECT_ID": "2025-293X", "EPOCH": "2025-12-23T06:00:00.999648", "MEAN_MOTION": 15.84395404, "ECCENTRICITY": 0.00037651, "INCLINATION": 69.9928, "RA_OF_ASC_NODE": 293.2477, "ARG_OF_PERICENTER": 273.1498, "MEAN_ANOMALY": 220.6741, "EPHEMERIS_TYPE": 0, "CLASSIFICATION_TYPE": "U", "NORAD_CAT_ID": 67024, "ELEMENT_SET_NO": 999, "REV_AT_EPOCH": 191, "BSTAR": -0.0079493938, "MEAN_MOTION_DOT": -0.01593794, "MEAN_MOTION_DDOT": 0}, "tle": {"line1": "1 67024U 25293X   25357.25001157 -.01593794  00000+0 -79494-2 0  9997", "line2": "2 67024  69.9928 293.2477 0003765 273.1498 220.6741 15.84395404  1919"}}, "geometry": {"type": "Point", "coordinates": [-113.22579531143096, -62.261334071382365]}}, {"type": "Feature", "properties": {"norad_id": 67025, "name": "STARLINK-36178", "group": "last-30-days", "lat": -60.76630358014821, "lon": -109.9930162528696, "alt_km": 331.74723017794986, "timestamp": "2025-12-24T03:53:28.364523+00:00", "meta": {"OBJECT_NAME": "STARLINK-36178", "OBJECT_ID": "2025-293Y", "EPOCH": "2025-12-23T20:00:01.000224", "MEAN_MOTION": 15.82326952, "ECCENTRICITY": 0.000352, "INCLINATION": 69.9925, "RA_OF_ASC_NODE": 291.5715, "ARG_OF_PERICENTER": 262.6455, "MEAN_ANOMALY": 317.5226, "EPHEMERIS_TYPE": 0, "CLASSIFICATION_TYPE": "U", "NORAD_CAT_ID": 67025, "ELEMENT_SET_NO": 999, "REV_AT_EPOCH": 200, "BSTAR": -0.0090367, "MEAN_MOTION_DOT": -0.01635284, "MEAN_MOTION_DDOT": 0}, "tle": {"line1": "1 67025U 25293Y   25357.83334491 -.01635284  00000+0 -90367-2 0  9995", "line2": "2 67025  69.9925 291.5715 0003520 262.6455 317.5226 15.82326952  2003"}}, "geometry": {"type": "Point", "coordinates": [-109.9930162528696, -60.76630358014821]}}, {"type": "Feature", "properties": {"norad_id": 67026, "name": "STARLINK-36176", "group": "last-30-days", "lat": -57.043817819781324, "lon": -103.57297545742992, "alt_km": 331.85341489138864, "timestamp": "2025-12-24T03:53:28.364533+00:00", "meta": {"OBJECT_NAME": "STARLINK-36176", "OBJECT_ID": "2025-293Z", "EPOCH": "2025-12-23T20:00:01.000224", "MEAN_MOTION": 15.82292644, "ECCENTRICITY": 0.0003441, "INCLINATION": 69.9922, "RA_OF_ASC_NODE": 291.5655, "ARG_OF_PERICENTER": 267.2016, "MEAN_ANOMALY": 318.0055, "EPHEMERIS_TYPE": 0, "CLASSIFICATION_TYPE": "U", "NORAD_CAT_ID": 67026, "ELEMENT_SET_NO": 999, "REV_AT_EPOCH": 200, "BSTAR": -0.009117, "MEAN_MOTION_DOT": -0.01645512, "MEAN_MOTION_DDOT": 0}, "tle": {"line1": "1 67026U 25293Z   25357.83334491 -.01645512  00000+0 -91170-2 0  9994", "line2": "2 67026  69.9922 291.5655 0003441 267.2016 318.0055 15.82292644  2006"}}, "geometry": {"type": "Point", "coordinates": [-103.57297545742992, -57.043817819781324]}}, {"type": "Feature", "properties": {"norad_id": 67027, "name": "STARLINK-36171", "group": "last-30-days", "lat": -58.71861765318887, "lon": -106.22499209687449, "alt_km": 331.8739054786356, "timestamp": "2025-12-24T03:53:28.364544+00:00", "meta": {"OBJECT_NAME": "STARLINK-36171", "OBJECT_ID": "2025-293AA", "EPOCH": "2025-12-23T20:00:01.000224", "MEAN_MOTION": 15.82299779, "ECCENTRICITY": 0.0003409, "INCLINATION": 69.9921, "RA_OF_ASC_NODE": 291.5683, "ARG_OF_PERICENTER": 265.1733, "MEAN_ANOMALY": 317.8293, "EPHEMERIS_TYPE": 0, "CLASSIFICATION_TYPE": "U", "NORAD_CAT_ID": 67027, "ELEMENT_SET_NO": 999, "REV_AT_EPOCH": 200, "BSTAR": -0.0090901, "MEAN_MOTION_DOT": -0.01641732, "MEAN_MOTION_DDOT": 0}, "tle": {"line1": "1 67027U 25293AA  25357.83334491 -.01641732  00000+0 -90901-2 0  9996", "line2": "2 67027  69.9921 291.5683 0003409 265.1733 317.8293 15.82299779  2001"}}, "geometry": {"type": "Point", "coordinates": [-106.22499209687449, -58.71861765318887]}}, {"type": "Feature", "properties": {"norad_id": 67028, "name": "STARLINK-36132", "group": "last-30-days", "lat": -53.019131539549655, "lon": -98.32089195491754, "alt_km": 331.91458447162677, "timestamp": "2025-12-24T03:53:28.364556+00:00", "meta": {"OBJECT_NAME": "STARLINK-36132", "OBJECT_ID": "2025-293AB", "EPOCH": "2025-12-23T20:00:01.000224", "MEAN_MOTION": 15.82247586, "ECCENTRICITY": 0.0003611, "INCLINATION": 69.9924, "RA_OF_ASC_NODE": 291.5596, "ARG_OF_PERICENTER": 266.2868, "MEAN_ANOMALY": 324.0008, "EPHEMERIS_TYPE": 0, "CLASSIFICATION_TYPE": "U", "NORAD_CAT_ID": 67028, "ELEMENT_SET_NO": 999, "REV_AT_EPOCH": 200, "BSTAR": -0.0090988, "MEAN_MOTION_DOT": -0.01639797, "MEAN_MOTION_DDOT": 0}, "tle": {"line1": "1 67028U 25293AB  25357.83334491 -.01639797  00000+0 -90988-2 0  9990", "line2": "2 67028  69.9924 291.5596 0003611 266.2868 324.0008 15.82247586  2007"}}, "geometry": {"type": "Point", "coordinates": [-98.32089195491754, -53.019131539549655]}}, {"type": "Feature", "properties": {"norad_id": 67029, "name": "STARLINK-36190", "group": "last-30-days", "lat": -55.23388122664908, "lon": -101.04183853895728, "alt_km": 331.92265632468025, "timestamp": "2025-12-24T03:53:28.364566+00:00", "meta": {"OBJECT_NAME": "STARLINK-36190", "OBJECT_ID": "2025-293AC", "EPOCH": "2025-12-23T20:00:01.000224", "MEAN_MOTION": 15.82269178, "ECCENTRICITY": 0.0003601, "INCLINATION": 69.9925, "RA_OF_ASC_NODE": 291.5631, "ARG_OF_PERICENTER": 262.2504, "MEAN_ANOMALY": 325.2704, "EPHEMERIS_TYPE": 0, "CLASSIFICATION_TYPE": "U", "NORAD_CAT_ID": 67029, "ELEMENT_SET_NO": 999, "REV_AT_EPOCH": 200, "BSTAR": -0.0090192, "MEAN_MOTION_DOT": -0.01628736, "MEAN_MOTION_DDOT": 0}, "tle": {"line1": "1 67029U 25293AC  25357.83334491 -.01628736  00000+0 -90192-2 0  9999", "line2": "2 67029  69.9925 291.5631 0003601 262.2504 325.2704 15.82269178  2008"}}, "geometry": {"type": "Point", "coordinates": [-101.04183853895728, -55.23388122664908]}}]}